[
    {
        "Altitude(m)": 604983.0530795609,
        "Argument of Periapsis(deg)": 0.0,
        "Eccentricity": 0.0,
        "Inclination(deg)": 60.0,
        "Latitude(deg)": -0.09274002942347898,
        "Longitude(deg)": -64.91608356439342,
        "Mean Anomaly(deg)": -180.0,
        "RAAN(deg)": 215.0,
        "Satellite Name": "Test1 957",
        "Satellite Number": 957,
        "Semi-Major Axis(m)": 6980739.136638005,
        "Time(s)": 0
    },
    {
        "Altitude(m)": 605055.3331822555,
        "Argument of Periapsis(deg)": 0.00010418945913296404,
        "Eccentricity": 0.0,
        "Inclination(deg)": 60.0,
        "Latitude(deg)": -0.6331498009945997,
        "Longitude(deg)": -64.64795844638826,
        "Mean Anomaly(deg)": -179.37989385453818,
        "RAAN(deg)": 214.99957995086024,
        "Satellite Name": "Test1 957",
        "Satellite Number": 957,
        "Semi-Major Axis(m)": 6980739.136638005,
        "Time(s)": 10
    },
    {
        "Altitude(m)": 605130.8223440613,
        "Argument of Periapsis(deg)": 0.0002083789182659281,
        "Eccentricity": 0.0,
        "Inclination(deg)": 60.0,
        "Latitude(deg)": -1.1735286499626438,
        "Longitude(deg)": -64.37977568304734,
        "Mean Anomaly(deg)": -178.75978770907636,
        "RAAN(deg)": 214.99915990172053,
        "Satellite Name": "Test1 957",
        "Satellite Number": 957,
        "Semi-Major Axis(m)": 6980739.136638005,
        "Time(s)": 20
    },
    {
        "Altitude(m)": 605209.5096013685,
        "Argument of Periapsis(deg)": 0.00031256837739889213,
        "Eccentricity": 0.0,
        "Inclination(deg)": 60.0,
        "Latitude(deg)": -1.713859495862193,
        "Longitude(deg)": -64.11148088659777,
        "Mean Anomaly(deg)": -178.13968156361452,
        "RAAN(deg)": 214.99873985258077,
        "Satellite Name": "Test1 957",
        "Satellite Number": 957,
        "Semi-Major Axis(m)": 6980739.136638005,
        "Time(s)": 30
    },
    {
        "Altitude(m)": 605291.382466635,
        "Argument of Periapsis(deg)": 0.0004167578365318562,
        "Eccentricity": 0.0,
        "Inclination(deg)": 60.0,
        "Latitude(deg)": -2.254125240175115,
        "Longitude(deg)": -63.84301910147001,
        "Mean Anomaly(deg)": -177.51957541815267,
        "RAAN(deg)": 214.99831980344103,
        "Satellite Name": "Test1 957",
        "Satellite Number": 957,
        "Semi-Major Axis(m)": 6980739.136638005,
        "Time(s)": 40
    },
    {
        "Altitude(m)": 605376.426931712,
        "Argument of Periapsis(deg)": 0.0005209472956648203,
        "Eccentricity": 0.0,
        "Inclination(deg)": 60.0,
        "Latitude(deg)": -2.7943087564195737,
        "Longitude(deg)": -63.57433578087749,
        "Mean Anomaly(deg)": -176.89946927269082,
        "RAAN(deg)": 214.99789975430127,
        "Satellite Name": "Test1 957",
        "Satellite Number": 957,
        "Semi-Major Axis(m)": 6980739.136638005,
        "Time(s)": 50
    },
    {
        "Altitude(m)": 605464.6274719352,
        "Argument of Periapsis(deg)": 0.0006251367547977843,
        "Eccentricity": 0.0,
        "Inclination(deg)": 60.0,
        "Latitude(deg)": -3.334392880197519,
        "Longitude(deg)": -63.30537625044041,
        "Mean Anomaly(deg)": -176.279363127229,
        "RAAN(deg)": 214.99747970516157,
        "Satellite Name": "Test1 957",
        "Satellite Number": 957,
        "Semi-Major Axis(m)": 6980739.136638005,
        "Time(s)": 60
    },
    {
        "Altitude(m)": 605555.967050911,
        "Argument of Periapsis(deg)": 0.0007293262139307483,
        "Eccentricity": 0.0,
        "Inclination(deg)": 60.0,
        "Latitude(deg)": -3.874360399189817,
        "Longitude(deg)": -63.03608517169615,
        "Mean Anomaly(deg)": -175.65925698176716,
        "RAAN(deg)": 214.9970596560218,
        "Satellite Name": "Test1 957",
        "Satellite Number": 957,
        "Semi-Major Axis(m)": 6980739.136638005,
        "Time(s)": 70
    },
    {
        "Altitude(m)": 605650.4271260991,
        "Argument of Periapsis(deg)": 0.0008335156730637124,
        "Eccentricity": 0.0,
        "Inclination(deg)": 60.0,
        "Latitude(deg)": -4.414194043083997,
        "Longitude(deg)": -62.76640751834307,
        "Mean Anomaly(deg)": -175.0391508363053,
        "RAAN(deg)": 214.99663960688207,
        "Satellite Name": "Test1 957",
        "Satellite Number": 957,
        "Semi-Major Axis(m)": 6980739.136638005,
        "Time(s)": 80
    },
    {
        "Altitude(m)": 605747.987655108,
        "Argument of Periapsis(deg)": 0.0009377051321966765,
        "Eccentricity": 0.0,
        "Inclination(deg)": 60.0,
        "Latitude(deg)": -4.953876473421621,
        "Longitude(deg)": -62.496288039440955,
        "Mean Anomaly(deg)": -174.41904469084352,
        "RAAN(deg)": 214.9962195577423,
        "Satellite Name": "Test1 957",
        "Satellite Number": 957,
        "Semi-Major Axis(m)": 6980739.136638005,
        "Time(s)": 90
    },
    {
        "Altitude(m)": 605848.6271027398,
        "Argument of Periapsis(deg)": 0.0010418945913296407,
        "Eccentricity": 0.0,
        "Inclination(deg)": 60.0,
        "Latitude(deg)": -5.493390273351037,
        "Longitude(deg)": -62.22567072241194,
        "Mean Anomaly(deg)": -173.7989385453817,
        "RAAN(deg)": 214.9957995086026,
        "Satellite Name": "Test1 957",
        "Satellite Number": 957,
        "Semi-Major Axis(m)": 6980739.136638005,
        "Time(s)": 100
    },
    {
        "Altitude(m)": 605952.3224487591,
        "Argument of Periapsis(deg)": 0.0011460840504626045,
        "Eccentricity": 0.0,
        "Inclination(deg)": 60.0,
        "Latitude(deg)": -6.032717937272999,
        "Longitude(deg)": -61.95449976868828,
        "Mean Anomaly(deg)": -173.1788323999199,
        "RAAN(deg)": 214.99537945946287,
        "Satellite Name": "Test1 957",
        "Satellite Number": 957,
        "Semi-Major Axis(m)": 6980739.136638005,
        "Time(s)": 110
    },
    {
        "Altitude(m)": 606059.0491964143,
        "Argument of Periapsis(deg)": 0.0012502735095955685,
        "Eccentricity": 0.0,
        "Inclination(deg)": 60.0,
        "Latitude(deg)": -6.571841860363261,
        "Longitude(deg)": -61.68271905622942,
        "Mean Anomaly(deg)": -172.55872625445807,
        "RAAN(deg)": 214.9949594103231,
        "Satellite Name": "Test1 957",
        "Satellite Number": 957,
        "Semi-Major Axis(m)": 6980739.136638005,
        "Time(s)": 120
    },
    {
        "Altitude(m)": 606168.781381662,
        "Argument of Periapsis(deg)": 0.0013544629687285324,
        "Eccentricity": 0.0,
        "Inclination(deg)": 60.0,
        "Latitude(deg)": -7.1107443279588916,
        "Longitude(deg)": -61.410271601753614,
        "Mean Anomaly(deg)": -171.93862010899622,
        "RAAN(deg)": 214.99453936118334,
        "Satellite Name": "Test1 957",
        "Satellite Number": 957,
        "Semi-Major Axis(m)": 6980739.136638005,
        "Time(s)": 130
    },
    {
        "Altitude(m)": 606281.4915831232,
        "Argument of Periapsis(deg)": 0.0014586524278614966,
        "Eccentricity": 0.0,
        "Inclination(deg)": 60.0,
        "Latitude(deg)": -7.649407504794935,
        "Longitude(deg)": -61.13710053552789,
        "Mean Anomaly(deg)": -171.3185139635344,
        "RAAN(deg)": 214.99411931204364,
        "Satellite Name": "Test1 957",
        "Satellite Number": 957,
        "Semi-Major Axis(m)": 6980739.136638005,
        "Time(s)": 140
    },
    {
        "Altitude(m)": 606397.1509327563,
        "Argument of Periapsis(deg)": 0.0015628418869944607,
        "Eccentricity": 0.0,
        "Inclination(deg)": 60.0,
        "Latitude(deg)": -8.187813424074957,
        "Longitude(deg)": -60.863148562940616,
        "Mean Anomaly(deg)": -170.69840781807255,
        "RAAN(deg)": 214.99369926290385,
        "Satellite Name": "Test1 957",
        "Satellite Number": 957,
        "Semi-Major Axis(m)": 6980739.136638005,
        "Time(s)": 150
    },
    {
        "Altitude(m)": 606515.7291272399,
        "Argument of Periapsis(deg)": 0.0016670313461274247,
        "Eccentricity": 0.0,
        "Inclination(deg)": 60.0,
        "Latitude(deg)": -8.725943976360588,
        "Longitude(deg)": -60.58835742570115,
        "Mean Anomaly(deg)": -170.0783016726107,
        "RAAN(deg)": 214.99327921376414,
        "Satellite Name": "Test1 957",
        "Satellite Number": 957,
        "Semi-Major Axis(m)": 6980739.136638005,
        "Time(s)": 160
    },
    {
        "Altitude(m)": 606637.1944400442,
        "Argument of Periapsis(deg)": 0.0017712208052603888,
        "Eccentricity": 0.0,
        "Inclination(deg)": 60.0,
        "Latitude(deg)": -9.263780898267912,
        "Longitude(deg)": -60.31266887550991,
        "Mean Anomaly(deg)": -169.45819552714886,
        "RAAN(deg)": 214.99285916462438,
        "Satellite Name": "Test1 957",
        "Satellite Number": 957,
        "Semi-Major Axis(m)": 6980739.136638005,
        "Time(s)": 170
    },
    {
        "Altitude(m)": 606761.5137342267,
        "Argument of Periapsis(deg)": 0.001875410264393353,
        "Eccentricity": 0.0,
        "Inclination(deg)": 60.0,
        "Latitude(deg)": -9.801305760950822,
        "Longitude(deg)": -60.03602413442344,
        "Mean Anomaly(deg)": -168.83808938168704,
        "RAAN(deg)": 214.99243911548464,
        "Satellite Name": "Test1 957",
        "Satellite Number": 957,
        "Semi-Major Axis(m)": 6980739.136638005,
        "Time(s)": 180
    },
    {
        "Altitude(m)": 606888.6524758973,
        "Argument of Periapsis(deg)": 0.0019795997235263173,
        "Eccentricity": 0.0,
        "Inclination(deg)": 60.0,
        "Latitude(deg)": -10.338499958358593,
        "Longitude(deg)": -59.75836335475805,
        "Mean Anomaly(deg)": -168.21798323622522,
        "RAAN(deg)": 214.99201906634488,
        "Satellite Name": "Test1 957",
        "Satellite Number": 957,
        "Semi-Major Axis(m)": 6980739.136638005,
        "Time(s)": 190
    }
]